NORAD_CAT_ID,OBJECT_NAME,OBJECT_TYPE,EPOCH,MEAN_MOTION,ECCENTRICITY,INCLINATION,RA_OF_ASC_NODE,ARG_OF_PERICENTER,MEAN_ANOMALY,BSTAR,MEAN_MOTION_DOT,MEAN_MOTION_DDOT,TLE_LINE0,TLE_LINE1,TLE_LINE2,SEMIMAJOR_AXIS,PERIOD,APOGEE,PERIGEE,DECAYED
56476.0,STARLINK-5545,PAYLOAD,2024-03-04 16:53:00,14.98344101,0.0002751,70.0014,177.6916,261.4477,98.637,0.00015465,1.753e-05,0.0,0 STARLINK-5545,1 56476U 23064AE  24064.70347886  .00001753  00000-0  15465-3 0  9992,2 56476  70.0014 177.6916 0002751 261.4477  98.6370 14.98344101 45642,6950.149,96.106,573.926,570.102,0.0
56476.0,STARLINK-5545,PAYLOAD,2024-03-05 13:42:48,14.98309818,0.0002662,70.0014,175.5037,268.8598,91.2256,-0.00018444,-2.292e-05,0.0,0 STARLINK-5545,1 56476U 23064AE  24065.57139145 -.00002292  00000-0 -18444-3 0  9996,2 56476  70.0014 175.5037 0002662 268.8598  91.2256 14.98309818 45771,6950.255,96.108,573.97,570.27,0.0
56476.0,STARLINK-5545,PAYLOAD,2024-03-05 16:55:04,14.98313253,0.0002633,70.0014,175.1669,268.944,91.1417,-0.00014293,-1.797e-05,0.0,0 STARLINK-5545,1 56476U 23064AE  24065.70490939 -.00001797  00000-0 -14293-3 0  9999,2 56476  70.0014 175.1669 0002633 268.9440  91.1417 14.98313253 46152,6950.245,96.108,573.94,570.28,0.0
56476.0,STARLINK-5545,PAYLOAD,2024-03-06 12:08:40,14.98332076,0.0002846,70.001,173.147,272.3057,87.7776,-0.00013125,-1.659e-05,0.0,0 STARLINK-5545,1 56476U 23064AE  24066.50601952 -.00001659  00000-0 -13125-3 0  9997,2 56476  70.0010 173.1470 0002846 272.3057  87.7776 14.98332076 46271,6950.186,96.107,574.029,570.073,0.0
56476.0,STARLINK-5545,PAYLOAD,2024-03-06 13:44:48,14.98331588,0.0002813,70.0013,172.9788,267.6947,92.389,-9.7404e-05,-1.255e-05,0.0,0 STARLINK-5545,1 56476U 23064AE  24066.57277865 -.00001255  00000-0 -97404-4 0  9991,2 56476  70.0013 172.9788 0002813 267.6947  92.3890 14.98331588 45929,6950.188,96.107,574.008,570.098,0.0
56476.0,STARLINK-5545,PAYLOAD,2024-03-06 16:57:03,14.98338848,0.0002799,70.0009,172.6422,268.9372,91.1466,-3.4591e-05,-5.06e-06,0.0,0 STARLINK-5545,1 56476U 23064AE  24066.70629201 -.00000506  00000-0 -34591-4 0  9997,2 56476  70.0009 172.6422 0002799 268.9372  91.1466 14.98338848 46300,6950.166,96.106,573.976,570.085,0.0
56476.0,STARLINK-5545,PAYLOAD,2024-03-07 13:46:49,14.98317926,0.0002439,70.001,170.4556,264.8027,95.2854,0.00011256,1.25e-05,0.0,0 STARLINK-5545,1 56476U 23064AE  24067.57418414  .00001250  00000-0  11256-3 0  9992,2 56476  70.0010 170.4556 0002439 264.8027  95.2854 14.98317926 46073,6950.23,96.108,573.79,570.4,0.0
56476.0,STARLINK-5545,PAYLOAD,2024-03-08 10:36:33,14.9835976,0.0002454,70.0011,168.2677,262.2983,97.7897,-0.00050438,-6.11e-05,0.0,0 STARLINK-5545,1 56476U 23064AE  24068.44205927 -.00006110  00000-0 -50438-3 0  9999,2 56476  70.0011 168.2677 0002454 262.2983  97.7897 14.98359760 46563,6950.101,96.105,573.671,570.26,0.0
56476.0,STARLINK-5545,PAYLOAD,2024-03-08 23:25:38,14.9833405,0.0002616,70.0013,166.9213,266.4251,93.6609,1.1168e-06,-8e-07,0.0,0 STARLINK-5545,1 56476U 23064AE  24068.97613919 -.00000080  00000-0  11168-5 0  9999,2 56476  70.0013 166.9213 0002616 266.4251  93.6609 14.98334050 46640,6950.18,96.107,573.864,570.227,0.0
56476.0,STARLINK-5545,PAYLOAD,2024-03-09 12:14:42,14.98334162,0.0002756,70.0009,165.5744,266.7469,93.3375,4.8585e-05,4.87e-06,0.0,0 STARLINK-5545,1 56476U 23064AE  24069.51021615  .00000487  00000-0  48585-4 0  9998,2 56476  70.0009 165.5744 0002756 266.7469  93.3375 14.98334162 46368,6950.18,96.107,573.96,570.13,0.0
56476.0,STARLINK-5545,PAYLOAD,2024-03-09 23:27:39,14.98340557,0.0003145,70.0015,164.3942,273.4171,86.6628,-0.0003179,-3.885e-05,0.0,0 STARLINK-5545,1 56476U 23064AE  24069.97753808 -.00003885  00000-0 -31790-3 0  9990,2 56476  70.0015 164.3942 0003145 273.4171  86.6628 14.98340557 46798,6950.16,96.106,574.211,569.839,0.0
56476.0,STARLINK-5545,PAYLOAD,2024-03-10 12:16:44,14.98328511,0.0002912,70.0002,163.0485,270.9825,89.1,-5.8242e-05,-7.88e-06,0.0,0 STARLINK-5545,1 56476U 23064AE  24070.51162252 -.00000788  00000-0 -58242-4 0  9990,2 56476  70.0002 163.0485 0002912 270.9825  89.1000 14.98328511 46878,6950.197,96.107,574.086,570.039,0.0
56476.0,STARLINK-5545,PAYLOAD,2024-03-10 15:29:00,14.98328522,0.000287,70.0003,162.7122,271.1231,88.9599,-5.051e-05,-6.96e-06,0.0,0 STARLINK-5545,1 56476U 23064AE  24070.64514236 -.00000696  00000-0 -50510-4 0  9995,2 56476  70.0003 162.7122 0002870 271.1231  88.9599 14.98328522 46535,6950.197,96.107,574.057,570.068,0.0
56476.0,STARLINK-5545,PAYLOAD,2024-03-11 12:18:44,14.98336414,0.0002984,70.0001,160.5236,267.2041,92.8776,3.2405e-05,2.94e-06,0.0,0 STARLINK-5545,1 56476U 23064AE  24071.51301347  .00000294  00000-0  32405-4 0  9994,2 56476  70.0001 160.5236 0002984 267.2041  92.8776 14.98336414 47021,6950.173,96.107,574.112,569.964,0.0
56476.0,STARLINK-5545,PAYLOAD,2024-03-12 12:20:45,14.98329085,0.0003076,69.9999,157.9992,272.3936,87.6871,2.9216e-05,2.56e-06,0.0,0 STARLINK-5545,1 56476U 23064AE  24072.51441687  .00000256  00000-0  29216-4 0  9991,2 56476  69.9999 157.9992 0003076 272.3936  87.6871 14.98329085 47176,6950.196,96.107,574.199,569.923,0.0
56476.0,STARLINK-5545,PAYLOAD,2024-03-13 04:22:06,14.98298032,0.0003076,70.0,156.3163,268.9457,91.1349,0.00059996,7.067e-05,0.0,0 STARLINK-5545,1 56476U 23064AE  24073.18201880  .00007067  00000-0  59996-3 0  9998,2 56476  70.0000 156.3163 0003076 268.9457  91.1349 14.98298032 47272,6950.292,96.109,574.295,570.019,0.0
56476.0,STARLINK-5545,PAYLOAD,2024-03-13 12:22:46,14.98336996,0.0003162,69.9998,155.4747,272.5543,87.5254,4.4161e-06,-4e-07,0.0,0 STARLINK-5545,1 56476U 23064AE  24073.51581057 -.00000040  00000-0  44161-5 0  9997,2 56476  69.9998 155.4747 0003162 272.5543  87.5254 14.98336996 47328,6950.171,96.107,574.234,569.839,0.0
56476.0,STARLINK-5545,PAYLOAD,2024-03-14 06:00:14,14.98331874,0.0002994,70.0002,153.6244,268.4342,91.6474,1.2745e-05,5.9e-07,0.0,0 STARLINK-5545,1 56476U 23064AE  24074.25017118  .00000059  00000-0  12745-4 0  9992,2 56476  70.0002 153.6244 0002994 268.4342  91.6474 14.98331874 47074,6950.187,96.107,574.133,569.971,0.0
56476.0,STARLINK-5545,PAYLOAD,2024-03-14 12:24:46,14.98332753,0.0002886,70.0004,152.9514,267.4454,92.6374,2.2916e-05,1.8e-06,0.0,0 STARLINK-5545,1 56476U 23064AE  24074.51720982  .00000180  00000-0  22916-4 0  9997,2 56476  70.0004 152.9514 0002886 267.4454  92.6374 14.98332753 47472,6950.184,96.107,574.055,570.044,0.0
56476.0,STARLINK-5545,PAYLOAD,2024-03-15 12:26:47,14.98356754,0.0003035,70.0002,150.4266,265.97,94.1112,-0.00053334,-6.455e-05,0.0,0 STARLINK-5545,1 56476U 23064AE  24075.51860747 -.00006455  00000-0 -53334-3 0  9992,2 56476  70.0002 150.4266 0003035 265.9700  94.1112 14.98356754 47622,6950.11,96.105,574.085,569.866,0.0
56476.0,STARLINK-5545,PAYLOAD,2024-03-16 04:28:08,14.98329507,0.0002957,69.9996,148.7426,266.3033,93.7788,-1.802e-05,-3.08e-06,0.0,0 STARLINK-5545,1 56476U 23064AE  24076.18621202 -.00000308  00000-0 -18020-4 0  9992,2 56476  69.9996 148.7426 0002957 266.3033  93.7788 14.98329507 47726,6950.194,96.107,574.115,570.004,0.0
56476.0,STARLINK-5545,PAYLOAD,2024-03-16 14:04:57,14.98329868,0.0002893,69.9999,147.7331,265.9089,94.1739,-8.9005e-06,-1.99e-06,0.0,0 STARLINK-5545,1 56476U 23064AE  24076.58677157 -.00000199  00000-0 -89005-5 0  9996,2 56476  69.9999 147.7331 0002893 265.9089  94.1739 14.98329868 47426,6950.193,96.107,574.069,570.048,0.0
56476.0,STARLINK-5545,PAYLOAD,2024-03-17 04:30:09,14.98326798,0.0002881,69.9999,146.2184,265.3974,94.6856,3.4359e-05,3.17e-06,0.0,0 STARLINK-5545,1 56476U 23064AE  24077.18761242  .00000317  00000-0  34359-4 0  9993,2 56476  69.9999 146.2184 0002881 265.3974  94.6856 14.98326798 47873,6950.203,96.107,574.07,570.065,0.0
56476.0,STARLINK-5545,PAYLOAD,2024-03-17 14:06:58,14.98328087,0.0002848,70.0,145.2087,264.6227,95.4607,4.453e-05,4.38e-06,0.0,0 STARLINK-5545,1 56476U 23064AE  24077.58817176  .00000438  00000-0  44530-4 0  9991,2 56476  70.0000 145.2087 0002848 264.6227  95.4607 14.98328087 47579,6950.199,96.107,574.043,570.084,0.0
56476.0,STARLINK-5545,PAYLOAD,2024-03-18 04:32:10,14.98327851,0.0002767,70.0002,143.6943,262.5595,97.525,1.8929e-06,-7e-07,0.0,0 STARLINK-5545,1 56476U 23064AE  24078.18901351 -.00000070  00000-0  18929-5 0  9994,2 56476  70.0002 143.6943 0002767 262.5595  97.5250 14.98327851 48025,6950.2,96.107,573.988,570.141,0.0
56476.0,STARLINK-5545,PAYLOAD,2024-03-18 10:56:43,14.98326219,0.0002812,70.0,143.0208,262.9985,97.0855,-1.9054e-05,-3.2e-06,0.0,0 STARLINK-5545,1 56476U 23064AE  24078.45605544 -.00000320  00000-0 -19054-4 0  9997,2 56476  70.0000 143.0208 0002812 262.9985  97.0855 14.98326219 47706,6950.205,96.107,574.024,570.115,0.0
56476.0,STARLINK-5545,PAYLOAD,2024-03-19 10:58:43,14.98334862,0.0002682,70.0003,140.4962,255.8246,104.2615,6.7949e-05,7.18e-06,0.0,0 STARLINK-5545,1 56476U 23064AE  24079.45744645  .00000718  00000-0  67949-4 0  9999,2 56476  70.0003 140.4962 0002682 255.8246 104.2615 14.98334862 47857,6950.178,96.107,573.907,570.179,0.0
56476.0,STARLINK-5545,PAYLOAD,2024-03-19 12:34:51,14.98335648,0.0002702,70.0002,140.3279,257.847,102.2386,7.2283e-05,7.7e-06,0.0,0 STARLINK-5545,1 56476U 23064AE  24079.52420573  .00000770  00000-0  72283-4 0  9993,2 56476  70.0002 140.3279 0002702 257.8470 102.2386 14.98335648 48228,6950.175,96.107,573.918,570.162,0.0
56476.0,STARLINK-5545,PAYLOAD,2024-03-20 09:24:37,14.98322046,0.0002578,70.0007,138.1417,247.841,112.2476,-5.6154e-05,-7.63e-06,0.0,0 STARLINK-5545,1 56476U 23064AE  24080.39209867 -.00000763  00000-0 -56154-4 0  9994,2 56476  70.0007 138.1417 0002578 247.8410 112.2476 14.98322046 48359,6950.217,96.108,573.874,570.291,0.0
56476.0,STARLINK-5545,PAYLOAD,2024-03-20 14:13:01,14.98318752,0.0002579,70.0002,137.635,258.7111,101.3758,-8.3211e-05,-1.085e-05,0.0,0 STARLINK-5545,1 56476U 23064AE  24080.59238306 -.00001085  00000-0 -83211-4 0  9998,2 56476  70.0002 137.6350 0002579 258.7111 101.3758 14.98318752 48029,6950.228,96.108,573.885,570.3,0.0
